OBJECT_NAME,OBJECT_ID,EPOCH,MEAN_MOTION,ECCENTRICITY,INCLINATION,RA_OF_ASC_NODE,ARG_OF_PERICENTER,MEAN_ANOMALY,EPHEMERIS_TYPE,CLASSIFICATION_TYPE,NORAD_CAT_ID,ELEMENT_SET_NO,REV_AT_EPOCH,BSTAR,MEAN_MOTION_DOT,MEAN_MOTION_DDOT
EUTELSAT QUANTUM,2021-069B,2026-06-16T02:58:29.890848,1.00270966,.0001998,0.0104,3.4424,79.1918,274.0826,0,U,49056,999,1791,0,.126E-5,0
ZHONGXING-2E,2021-071A,2026-06-16T03:12:55.090080,1.00270042,.0001714,0.0389,214.1791,278.0430,278.4832,0,U,49062,999,1802,0,-.291E-5,0
TJS-7,2021-077A,2026-06-15T06:52:43.035744,1.00269621,.0001963,0.5030,86.1055,333.0157,208.1393,0,U,49115,999,953,0,-.12E-5,0
CHINASAT 9B,2021-080A,2026-06-16T01:36:51.759936,1.00269104,.0001399,0.0499,90.2323,23.6321,276.1041,0,U,49125,999,1763,0,-.312E-5,0
SHIJIAN-21 (SJ-21),2021-094A,2026-06-16T00:15:15.718176,1.00271125,.00498247,5.1106,61.1895,168.3107,166.6459,0,U,49330,999,534,0,-.35E-5,0
SES-17,2021-095A,2026-06-15T06:45:38.797056,1.00265893,.00009666,0.0257,35.8759,102.3850,159.6161,0,U,49332,999,1783,0,-.268E-5,0
SYRACUSE 4A,2021-095B,2026-06-15T11:33:57.100896,1.00269615,.00014651,0.0174,350.7579,89.8332,42.1665,0,U,49333,999,1793,0,.138E-5,0
QZS-1R (MICHIBIKI-1R),2021-096A,2026-06-15T15:17:38.668704,1.00255740,.07547637,37.4590,79.6067,271.7705,276.0514,0,U,49336,999,1699,0,-.28E-5,0
ZHONGXING-1D,2021-114A,2026-06-15T23:56:45.365856,1.00269281,.0000719,0.0286,233.5514,353.8096,166.2863,0,U,49505,999,1680,0,-.336E-5,0
STPSAT-6,2021-118A,2026-06-16T02:13:05.412000,1.00273095,.0001504,0.3185,85.3859,246.3688,214.2412,0,U,49817,999,1656,0,-.46E-6,0
EXPRESS AMU-7,2021-123A,2026-06-15T17:10:16.620096,1.00269555,.00007005,0.0126,298.7429,43.0902,324.7291,0,U,50001,999,1652,0,-.241E-5,0
EXPRESS AMU-3,2021-123B,2026-06-15T23:31:25.143168,1.00269721,.0000207,0.0243,318.5963,46.0624,355.3415,0,U,50002,999,701,0,0,0
TIANLIAN 2-02,2021-124A,2026-06-15T12:59:38.693184,1.00271053,.00014499,0.7962,86.1515,199.4900,344.0629,0,U,50005,999,1660,0,-.12E-6,0
TURKSAT 5B,2021-126A,2026-06-14T15:01:05.484288,1.00273454,.00034935,0.0678,339.8428,11.2535,179.1044,0,U,50212,999,1627,0,.153E-5,0
INMARSAT 6-F1,2021-128A,2026-06-15T08:19:24.489408,1.00269236,.00003006,0.0125,301.1588,353.2979,177.7902,0,U,50319,999,1624,0,-.168E-5,0
SHIYAN-12 01 (SY-12 01),2021-129A,2026-06-15T16:42:41.672160,1.00039014,.0003247,3.6709,79.9291,284.6224,211.4406,0,U,50321,999,1648,0,.74E-6,0
SHIYAN-12 02 (SY-12 02),2021-129B,2026-06-15T17:12:11.055168,1.00489642,.000265,3.6705,79.9348,61.0788,108.7836,0,U,50322,999,1648,0,-.253E-5,0
TJS-9,2021-135A,2026-06-15T23:58:45.175008,1.00267792,.000418,0.0418,252.3151,156.4325,352.3776,0,U,50574,999,1641,0,-.299E-5,0
USA 324,2022-006A,2026-06-06T02:06:38.886912,1.00289779,.000284,0.7690,83.2777,165.6787,110.1567,0,U,51280,999,1602,0,-.58E-6,0
GOES 18,2022-021A,2026-06-16T02:05:51.106848,1.00270213,.0000283,0.0124,96.1374,67.0214,355.6609,0,U,51850,999,658,0,.97E-6,0
ZHONGXING-6D,2022-038A,2026-06-15T22:02:55.777632,1.00272593,.0000512,0.0127,290.9386,152.6262,276.4371,0,U,52255,999,1540,0,-.353E-5,0
NILESAT 301,2022-061A,2026-06-16T02:42:53.886816,1.00270421,.0004608,0.0465,7.0914,47.6937,243.3306,0,U,52817,999,1472,0,-.58E-6,0
CMS-02 (GSAT-24),2022-067A,2026-06-16T03:08:36.423168,1.00271403,.000157,0.0136,359.7566,2.4444,32.3662,0,U,52903,999,1459,0,0,0
MEASAT 3D,2022-067B,2026-06-16T01:28:24.699072,1.00272439,.0001477,0.0304,332.0293,36.0406,9.8610,0,U,52904,999,1463,0,-.241E-5,0
SES-22,2022-071A,2026-06-16T02:05:21.156288,1.00270572,.0001241,0.0139,357.9646,73.3535,85.3650,0,U,52933,999,751,0,.105E-5,0
WFOV (USA 332),2022-073A,2026-06-15T23:53:38.166432,1.00267014,.0002171,3.7082,78.5427,236.4929,66.8479,0,U,52940,999,1435,0,-.364E-5,0
TIANLIAN 2-03,2022-078A,2026-06-16T02:47:53.408832,1.00271269,.0001497,0.6689,77.0278,329.2057,270.7155,0,U,53100,999,1453,0,.71E-6,0
SBIRS GEO-6 (USA 336),2022-092A,2026-06-15T23:59:15.127296,1.00270684,.0001687,3.2596,317.4786,119.1948,326.4226,0,U,53355,999,1422,0,-.29E-5,0
EUTELSAT KONNECT VHTS,2022-110A,2026-06-15T16:22:14.636640,1.00267994,.00023559,0.0668,101.2802,326.0694,84.8599,0,U,53765,999,682,0,.18E-6,0
ZHONGXING-1E,2022-112A,2026-06-16T03:08:06.470880,1.00272280,.0000851,0.0466,219.9224,93.4282,79.4786,0,U,53813,999,1383,0,-.149E-5,0
SES-20,2022-123A,2026-06-15T09:13:23.639232,1.00268874,.00017055,0.0340,70.6636,25.9912,202.2580,0,U,53960,999,1351,0,-.98E-6,0
SES-21,2022-123B,2026-06-15T12:26:18.248064,1.00269953,.00009414,0.0265,28.0199,59.0670,232.2813,0,U,53961,999,719,0,.72E-6,0
