EUTELSAT QUANTUM        
1 49056U 21069B   26167.12395707  .00000126  00000+0  00000+0 0  9995
2 49056   0.0104   3.4424 0001998  79.1918 274.0826  1.00270966 17918
ZHONGXING-2E            
1 49062U 21071A   26167.13397095 -.00000291  00000+0  00000+0 0  9992
2 49062   0.0389 214.1791 0001714 278.0430 278.4832  1.00270042 18026
TJS-7                   
1 49115U 21077A   26166.28660921 -.00000120  00000+0  00000+0 0  9994
2 49115   0.5030  86.1055 0001963 333.0157 208.1393  1.00269621  9536
CHINASAT 9B             
1 49125U 21080A   26167.06726574 -.00000312  00000+0  00000+0 0  9996
2 49125   0.0499  90.2323 0001399  23.6321 276.1041  1.00269104 17634
SHIJIAN-21 (SJ-21)      
1 49330U 21094A   26167.01059859 -.00000350  00000+0  00000+0 0  9991
2 49330   5.1106  61.1895 0049824 168.3107 166.6459  1.00271125  5345
SES-17                  
1 49332U 21095A   26166.28169904 -.00000268  00000+0  00000+0 0  9993
2 49332   0.0257  35.8759 0000966 102.3850 159.6161  1.00265893 17836
SYRACUSE 4A             
1 49333U 21095B   26166.48191089  .00000138  00000+0  00000+0 0  9990
2 49333   0.0174 350.7579 0001465  89.8332  42.1665  1.00269615 17935
QZS-1R (MICHIBIKI-1R)   
1 49336U 21096A   26166.63725311 -.00000280  00000+0  00000+0 0  9991
2 49336  37.4590  79.6067 0754763 271.7705 276.0514  1.00255740 16995
ZHONGXING-1D            
1 49505U 21114A   26166.99774729 -.00000336  00000+0  00000+0 0  9998
2 49505   0.0286 233.5514 0000719 353.8096 166.2863  1.00269281 16801
STPSAT-6                
1 49817U 21118A   26167.09242375 -.00000046  00000+0  00000+0 0  9995
2 49817   0.3185  85.3859 0001504 246.3688 214.2412  1.00273095 16564
EXPRESS AMU-7           
1 50001U 21123A   26166.71547014 -.00000241  00000+0  00000+0 0  9991
2 50001   0.0126 298.7429 0000700  43.0902 324.7291  1.00269555 16528
EXPRESS AMU-3           
1 50002U 21123B   26166.98015212  .00000000  00000+0  00000+0 0  9993
2 50002   0.0243 318.5963 0000207  46.0624 355.3415  1.00269721  7016
TIANLIAN 2-02           
1 50005U 21124A   26166.54142006 -.00000012  00000+0  00000+0 0  9995
2 50005   0.7962  86.1515 0001449 199.4900 344.0629  1.00271053 16602
TURKSAT 5B              
1 50212U 21126A   26165.62575792  .00000153  00000+0  00000+0 0  9992
2 50212   0.0678 339.8428 0003493  11.2535 179.1044  1.00273454 16274
INMARSAT 6-F1           
1 50319U 21128A   26166.34681122 -.00000168  00000+0  00000+0 0  9994
2 50319   0.0125 301.1588 0000300 353.2979 177.7902  1.00269236 16240
SHIYAN-12 01 (SY-12 01) 
1 50321U 21129A   26166.69631565  .00000074  00000+0  00000+0 0  9997
2 50321   3.6709  79.9291 0003247 284.6224 211.4406  1.00039014 16484
SHIYAN-12 02 (SY-12 02) 
1 50322U 21129B   26166.71679462 -.00000253  00000+0  00000+0 0  9999
2 50322   3.6705  79.9348 0002650  61.0788 108.7836  1.00489642 16484
TJS-9                   
1 50574U 21135A   26166.99913397 -.00000299  00000+0  00000+0 0  9993
2 50574   0.0418 252.3151 0004180 156.4325 352.3776  1.00267792 16413
USA 324                 
1 51280U 22006A   26157.08795008 -.00000058  00000+0  00000+0 0  9996
2 51280   0.7690  83.2777 0002840 165.6787 110.1567  1.00289779 16021
GOES 18                 
1 51850U 22021A   26167.08739707  .00000097  00000+0  00000+0 0  9993
2 51850   0.0124  96.1374 0000283  67.0214 355.6609  1.00270213  6580
ZHONGXING-6D            
1 52255U 22038A   26166.91870113 -.00000353  00000+0  00000+0 0  9995
2 52255   0.0127 290.9386 0000512 152.6262 276.4371  1.00272593 15409
NILESAT 301             
1 52817U 22061A   26167.11312369 -.00000058  00000+0  00000+0 0  9994
2 52817   0.0465   7.0914 0004608  47.6937 243.3306  1.00270421 14727
CMS-02 (GSAT-24)        
1 52903U 22067A   26167.13097712  .00000000  00000+0  00000+0 0  9996
2 52903   0.0136 359.7566 0001570   2.4444  32.3662  1.00271403 14592
MEASAT 3D               
1 52904U 22067B   26167.06139698 -.00000241  00000+0  00000+0 0  9997
2 52904   0.0304 332.0293 0001477  36.0406   9.8610  1.00272439 14635
SES-22                  
1 52933U 22071A   26167.08705042  .00000105  00000+0  00000+0 0  9996
2 52933   0.0139 357.9646 0001241  73.3535  85.3650  1.00270572  7515
WFOV (USA 332)          
1 52940U 22073A   26166.99558063 -.00000364  00000+0  00000+0 0  9992
2 52940   3.7082  78.5427 0002171 236.4929  66.8479  1.00267014 14355
TIANLIAN 2-03           
1 53100U 22078A   26167.11659038  .00000071  00000+0  00000+0 0  9999
2 53100   0.6689  77.0278 0001497 329.2057 270.7155  1.00271269 14538
SBIRS GEO-6 (USA 336)   
1 53355U 22092A   26166.99948064 -.00000290  00000+0  00000+0 0  9996
2 53355   3.2596 317.4786 0001687 119.1948 326.4226  1.00270684 14221
EUTELSAT KONNECT VHTS   
1 53765U 22110A   26166.68211385  .00000018  00000+0  00000+0 0  9994
2 53765   0.0668 101.2802 0002355 326.0694  84.8599  1.00267994  6824
ZHONGXING-1E            
1 53813U 22112A   26167.13063045 -.00000149  00000+0  00000+0 0  9995
2 53813   0.0466 219.9224 0000851  93.4282  79.4786  1.00272280 13837
SES-20                  
1 53960U 22123A   26166.38430138 -.00000098  00000+0  00000+0 0  9990
2 53960   0.0340  70.6636 0001705  25.9912 202.2580  1.00268874 13516
SES-21                  
1 53961U 22123B   26166.51826676  .00000072  00000+0  00000+0 0  9993
2 53961   0.0265  28.0199 0000941  59.0670 232.2813  1.00269953  7192
